{
  "type": "FeatureCollection",
  "features": [
    {
      "type": "Feature",
      "properties": {
        "norad_id": 33860,
        "name": "IRIDIUM 33 DEB",
        "group": "iridium-33-debris",
        "lat": 29.746415144727,
        "lon": 25.786506250042837,
        "alt_km": 665.6658201378996,
        "timestamp": "2025-12-20T16:47:36.669296+00:00",
        "meta_object_name": "IRIDIUM 33 DEB",
        "meta_object_id": "1997-051AD",
        "meta_epoch": "2025-12-20T08:33:05.683392",
        "meta_mean_motion": 14.67452151,
        "meta_eccentricity": 0.0006512,
        "meta_inclination": 86.3822,
        "meta_ra_of_asc_node": 23.8665,
        "meta_arg_of_pericenter": 329.0872,
        "meta_mean_anomaly": 47.7409,
        "meta_ephemeris_type": 0,
        "meta_classification_type": "U",
        "meta_norad_cat_id": 33860,
        "meta_element_set_no": 999,
        "meta_rev_at_epoch": 88834,
        "meta_bstar": 0.00072005,
        "meta_mean_motion_dot": 4.098e-05,
        "meta_mean_motion_ddot": 0,
        "tle_line1": "1 33860U 97051AD  25354.35631578  .00004098  00000+0  72005-3 0  9996",
        "tle_line2": "2 33860  86.3822  23.8665 0006512 329.0872  47.7409 14.67452151888344"
      },
      "geometry": {
        "type": "Point",
        "coordinates": [
          25.786506250042837,
          29.746415144727
        ]
      }
    },
    {
      "type": "Feature",
      "properties": {
        "norad_id": 33862,
        "name": "IRIDIUM 33 DEB",
        "group": "iridium-33-debris",
        "lat": 53.31332215979804,
        "lon": -150.81616656169214,
        "alt_km": 653.4014030281905,
        "timestamp": "2025-12-20T16:47:36.669307+00:00",
        "meta_object_name": "IRIDIUM 33 DEB",
        "meta_object_id": "1997-051AF",
        "meta_epoch": "2025-12-20T01:36:41.237280",
        "meta_mean_motion": 14.69582079,
        "meta_eccentricity": 0.00527311,
        "meta_inclination": 86.4082,
        "meta_ra_of_asc_node": 34.2992,
        "meta_arg_of_pericenter": 44.6523,
        "meta_mean_anomaly": 336.7,
        "meta_ephemeris_type": 0,
        "meta_classification_type": "U",
        "meta_norad_cat_id": 33862,
        "meta_element_set_no": 999,
        "meta_rev_at_epoch": 88931,
        "meta_bstar": 0.00085473534,
        "meta_mean_motion_dot": 5.209e-05,
        "meta_mean_motion_ddot": 0,
        "tle_line1": "1 33862U 97051AF  25354.06714395  .00005209  00000+0  85474-3 0  9994",
        "tle_line2": "2 33862  86.4082  34.2992 0052731  44.6523 336.7000 14.69582079889312"
      },
      "geometry": {
        "type": "Point",
        "coordinates": [
          -150.81616656169214,
          53.31332215979804
        ]
      }
    },
    {
      "type": "Feature",
      "properties": {
        "norad_id": 33866,
        "name": "IRIDIUM 33 DEB",
        "group": "iridium-33-debris",
        "lat": 3.8273485622622907,
        "lon": 89.91618015573613,
        "alt_km": 864.9847089429986,
        "timestamp": "2025-12-20T16:47:36.669318+00:00",
        "meta_object_name": "IRIDIUM 33 DEB",
        "meta_object_id": "1997-051AK",
        "meta_epoch": "2025-12-20T06:55:12.570816",
        "meta_mean_motion": 14.25296077,
        "meta_eccentricity": 0.0114985,
        "meta_inclination": 86.3,
        "meta_ra_of_asc_node": 89.8422,
        "meta_arg_of_pericenter": 137.4548,
        "meta_mean_anomaly": 277.9322,
        "meta_ephemeris_type": 0,
        "meta_classification_type": "U",
        "meta_norad_cat_id": 33866,
        "meta_element_set_no": 999,
        "meta_rev_at_epoch": 86918,
        "meta_bstar": 0.00040225,
        "meta_mean_motion_dot": 1.034e-05,
        "meta_mean_motion_ddot": 0,
        "tle_line1": "1 33866U 97051AK  25354.28833994  .00001034  00000+0  40225-3 0  9996",
        "tle_line2": "2 33866  86.3000  89.8422 0114985 137.4548 277.9322 14.25296077869185"
      },
      "geometry": {
        "type": "Point",
        "coordinates": [
          89.91618015573613,
          3.8273485622622907
        ]
      }
    },
    {
      "type": "Feature",
      "properties": {
        "norad_id": 33867,
        "name": "IRIDIUM 33 DEB",
        "group": "iridium-33-debris",
        "lat": 26.435413685379558,
        "lon": -12.267180661127654,
        "alt_km": 310.8966200748855,
        "timestamp": "2025-12-20T16:47:36.669329+00:00",
        "meta_object_name": "IRIDIUM 33 DEB",
        "meta_object_id": "1997-051AL",
        "meta_epoch": "2025-12-20T00:00:24.546240",
        "meta_mean_motion": 15.83320916,
        "meta_eccentricity": 0.00135723,
        "meta_inclination": 86.3644,
        "meta_ra_of_asc_node": 346.2932,
        "meta_arg_of_pericenter": 95.1198,
        "meta_mean_anomaly": 265.1629,
        "meta_ephemeris_type": 0,
        "meta_classification_type": "U",
        "meta_norad_cat_id": 33867,
        "meta_element_set_no": 999,
        "meta_rev_at_epoch": 89625,
        "meta_bstar": 0.0064207293,
        "meta_mean_motion_dot": 0.01574163,
        "meta_mean_motion_ddot": 0,
        "tle_line1": "1 33867U 97051AL  25354.00028410  .01574163  00000+0  64207-2 0  9990",
        "tle_line2": "2 33867  86.3644 346.2932 0013572  95.1198 265.1629 15.83320916896259"
      },
      "geometry": {
        "type": "Point",
        "coordinates": [
          -12.267180661127654,
          26.435413685379558
        ]
      }
    },
    {
      "type": "Feature",
      "properties": {
        "norad_id": 33870,
        "name": "IRIDIUM 33 DEB",
        "group": "iridium-33-debris",
        "lat": -27.382707262706706,
        "lon": 52.9671129998897,
        "alt_km": 760.8049853194016,
        "timestamp": "2025-12-20T16:47:36.669341+00:00",
        "meta_object_name": "IRIDIUM 33 DEB",
        "meta_object_id": "1997-051AP",
        "meta_epoch": "2025-12-20T03:53:26.545056",
        "meta_mean_motion": 14.45886051,
        "meta_eccentricity": 0.00222495,
        "meta_inclination": 86.3743,
        "meta_ra_of_asc_node": 55.0796,
        "meta_arg_of_pericenter": 154.3397,
        "meta_mean_anomaly": 261.7164,
        "meta_ephemeris_type": 0,
        "meta_classification_type": "U",
        "meta_norad_cat_id": 33870,
        "meta_element_set_no": 999,
        "meta_rev_at_epoch": 88244,
        "meta_bstar": 0.00046884783,
        "meta_mean_motion_dot": 1.69e-05,
        "meta_mean_motion_ddot": 0,
        "tle_line1": "1 33870U 97051AP  25354.16211279  .00001690  00000+0  46885-3 0  9990",
        "tle_line2": "2 33870  86.3743  55.0796 0022249 154.3397 261.7164 14.45886051882442"
      },
      "geometry": {
        "type": "Point",
        "coordinates": [
          52.9671129998897,
          -27.382707262706706
        ]
      }
    },
    {
      "type": "Feature",
      "properties": {
        "norad_id": 33881,
        "name": "IRIDIUM 33 DEB",
        "group": "iridium-33-debris",
        "lat": 30.607476260642745,
        "lon": -78.86012765200009,
        "alt_km": 658.7775877325657,
        "timestamp": "2025-12-20T16:47:36.669352+00:00",
        "meta_object_name": "IRIDIUM 33 DEB",
        "meta_object_id": "1997-051BA",
        "meta_epoch": "2025-12-18T18:38:37.341312",
        "meta_mean_motion": 14.56678227,
        "meta_eccentricity": 0.00614608,
        "meta_inclination": 86.3861,
        "meta_ra_of_asc_node": 104.1184,
        "meta_arg_of_pericenter": 155.2089,
        "meta_mean_anomaly": 356.6087,
        "meta_ephemeris_type": 0,
        "meta_classification_type": "U",
        "meta_norad_cat_id": 33881,
        "meta_element_set_no": 999,
        "meta_rev_at_epoch": 87588,
        "meta_bstar": 0.0015458281,
        "meta_mean_motion_dot": 7.103e-05,
        "meta_mean_motion_ddot": 0,
        "tle_line1": "1 33881U 97051BA  25352.77682108  .00007103  00000+0  15458-2 0  9996",
        "tle_line2": "2 33881  86.3861 104.1184 0061460 155.2089 356.6087 14.56678227875882"
      },
      "geometry": {
        "type": "Point",
        "coordinates": [
          -78.86012765200009,
          30.607476260642745
        ]
      }
    },
    {
      "type": "Feature",
      "properties": {
        "norad_id": 33884,
        "name": "IRIDIUM 33 DEB",
        "group": "iridium-33-debris",
        "lat": -27.20349101268004,
        "lon": 4.354519601874314,
        "alt_km": 637.953865488922,
        "timestamp": "2025-12-20T16:47:36.669363+00:00",
        "meta_object_name": "IRIDIUM 33 DEB",
        "meta_object_id": "1997-051BD",
        "meta_epoch": "2025-12-20T07:15:05.919840",
        "meta_mean_motion": 14.77566189,
        "meta_eccentricity": 0.0009152,
        "meta_inclination": 86.3691,
        "meta_ra_of_asc_node": 6.4044,
        "meta_arg_of_pericenter": 294.2621,
        "meta_mean_anomaly": 85.095,
        "meta_ephemeris_type": 0,
        "meta_classification_type": "U",
        "meta_norad_cat_id": 33884,
        "meta_element_set_no": 999,
        "meta_rev_at_epoch": 88959,
        "meta_bstar": 0.0009712,
        "meta_mean_motion_dot": 6.964e-05,
        "meta_mean_motion_ddot": 0,
        "tle_line1": "1 33884U 97051BD  25354.30215185  .00006964  00000+0  97120-3 0  9998",
        "tle_line2": "2 33884  86.3691   6.4044 0009152 294.2621  85.0950 14.77566189889592"
      },
      "geometry": {
        "type": "Point",
        "coordinates": [
          4.354519601874314,
          -27.20349101268004
        ]
      }
    }
  ]
}